{"spkid": "54544087", "covariance": {"epoch": "2459889.5", "data": [["7.285146658008788E-15", "-9.754189291287812E-15", "-2.277467828452117E-12", "1.012768908827042E-13", "-7.736725247310865E-13", "1.786043121334855E-13"], ["-9.754189291287812E-15", "1.308009542814593E-14", "2.969418658431174E-12", "-1.347233216093843E-13", "9.971015824256692E-13", "-2.420024017430528E-13"], ["-2.277467828452117E-12", "2.969418658431174E-12", "1.302241731606208E-9", "-3.462158884485442E-11", "5.497924177722673E-10", "-5.222585995881334E-11"], ["1.012768908827042E-13", "-1.347233216093843E-13", "-3.462158884485442E-11", "9.769825062026534E-11", "-9.895965137270477E-11", "3.055316597478926E-11"], ["-7.736725247310865E-13", "9.971015824256692E-13", "5.497924177722673E-10", "-9.895965137270477E-11", "3.398491409908057E-10", "-3.865394846936977E-11"], ["1.786043121334855E-13", "-2.420024017430528E-13", "-5.222585995881334E-11", "3.055316597478926E-11", "-3.865394846936977E-11", "8.570143541746635E-11"]], "elements": [{"label": "e", "sigma": 8.53530705833644e-08, "name": "e", "units": null, "title": "eccentricity", "value": ".3831554566171287"}, {"name": "q", "sigma": 1.1436824484159e-07, "units": "au", "value": ".8453379185345576", "title": "perihelion distance", "label": "q"}, {"label": "tp", "name": "tp", "sigma": 3.6086586588457e-05, "value": "2459847.980246877499", "title": "time of perihelion passage", "units": "TDB"}, {"label": "node", "value": "154.1946788741048", "title": "longitude of the ascending node", "units": "deg", "name": "om", "sigma": 9.88424254155397e-06}, {"value": "307.8630286878893", "title": "argument of perihelion", "units": "deg", "sigma": 1.84349977214755e-05, "name": "w", "label": "peri"}, {"label": "i", "units": "deg", "title": "inclination", "value": "26.6190549458541", "sigma": 9.25750697636606e-06, "name": "i"}], "labels": ["e", "q", "tp", "node", "peri", "i"]}, "elements": [{"label": "e", "units": null, "value": ".3832766966081441", "title": "eccentricity", "sigma": "8.5387E-8", "name": "e"}, {"units": "au", "title": "semi-major axis", "value": "1.37026156509941", "name": "a", "sigma": "8.4637E-9", "label": "a"}, {"title": "perihelion distance", "value": ".8450722389390029", "units": "au", "name": "q", "sigma": "1.1439E-7", "label": "q"}, {"label": "i", "value": "26.62075446688897", "title": "inclination; angle with respect to x-y ecliptic plane", "units": "deg", "name": "i", "sigma": "9.258E-6"}, {"label": "node", "title": "longitude of the ascending node", "value": "154.176108047234", "units": "deg", "sigma": "9.8846E-6", "name": "om"}, {"title": "argument of perihelion", "value": "307.8812450062606", "units": "deg", "name": "w", "sigma": "1.8422E-5", "label": "peri"}, {"label": "M", "sigma": "1.6613E-5", "name": "ma", "units": "deg", "title": "mean anomaly", "value": "110.982939955565"}, {"name": "tp", "sigma": "2.8091E-5", "units": "TDB", "title": "time of perihelion passage", "value": "2461019.883523546372", "label": "tp"}, {"label": "period", "name": "per", "sigma": "5.4281E-6", "units": "d", "value": "585.8732121291748", "title": "sidereal orbital period"}, {"units": "deg/d", "title": "mean motion", "value": ".6144674181154169", "name": "n", "sigma": "5.6931E-9", "label": "n"}, {"label": "Q", "sigma": "1.1708E-8", "name": "ad", "units": "au", "title": "aphelion distance", "value": "1.895450891259818"}], "epoch": "2461200.5"}